IXPE                    
1 49954U 21121A   24128.91667824  .00006639  00000+0  48408-3 0  9998
2 49954   0.2311 332.0884 0009654  43.2509  31.1347 14.97627499  5490
